NORAD_CAT_ID,OBJECT_NAME,OBJECT_TYPE,EPOCH,MEAN_MOTION,ECCENTRICITY,INCLINATION,RA_OF_ASC_NODE,ARG_OF_PERICENTER,MEAN_ANOMALY,BSTAR,MEAN_MOTION_DOT,MEAN_MOTION_DDOT,TLE_LINE0,TLE_LINE1,TLE_LINE2,SEMIMAJOR_AXIS,PERIOD,APOGEE,PERIGEE,DECAYED
53290.0,STARLINK-4149,PAYLOAD,2022-08-17 14:00:01,15.73198155,0.0002534,53.2187,284.2892,26.98,161.6669,-0.00014135,-0.00020413,0.0,0 STARLINK-4149,1 53290U 22086BA  22229.58334491 -.00020413  00000-0 -14135-3 0  9990,2 53290  53.2187 284.2892 0002534  26.9800 161.6669 15.73198155  4410,6727.9,91.533,351.47,348.061,0.0
53290.0,STARLINK-4149,PAYLOAD,2022-08-18 08:00:01,15.73229956,0.000239,53.2183,280.5771,26.8532,91.8612,0.00017614,0.00024204,0.0,0 STARLINK-4149,1 53290U 22086BA  22230.33334491  .00024204  00000-0  17614-3 0  9990,2 53290  53.2183 280.5771 0002390  26.8532  91.8612 15.73229956  4531,6727.81,91.531,351.283,348.06699999999995,0.0
53290.0,STARLINK-4149,PAYLOAD,2022-08-18 14:00:01,15.73238186,0.0002513,53.2183,279.341,23.8727,71.569,0.00018375,0.00025289,0.0,0 STARLINK-4149,1 53290U 22086BA  22230.58334491  .00025289  00000-0  18375-3 0  9996,2 53290  53.2183 279.3410 0002513  23.8727  71.5690 15.73238186  1305,6727.786,91.531,351.342,347.961,0.0
53290.0,STARLINK-4149,PAYLOAD,2022-08-18 22:00:00,15.7320807,0.0002296999999999,53.2187,277.6894,22.8925,161.5493,0.0004058,0.0005673999999999,0.0,0 STARLINK-4149,1 53290U 22086BA  22230.91667824  .00056740  00000-0  40580-3 0  9991,2 53290  53.2187 277.6894 0002297  22.8925 161.5493 15.73208070  1304,6727.871999999999,91.533,351.283,348.19199999999995,0.0
53290.0,STARLINK-4149,PAYLOAD,2022-08-19 04:00:01,15.73277626,0.000231,53.2189,276.4521,27.3453,133.8693,-0.00053404,-0.00075163,0.0,0 STARLINK-4149,1 53290U 22086BA  22231.16668981 -.00075163  00000-0 -53404-3 0  9995,2 53290  53.2189 276.4521 0002310  27.3453 133.8693 15.73277626  4661,6727.674,91.529,351.093,347.985,0.0
53290.0,STARLINK-4149,PAYLOAD,2022-08-19 14:00:01,15.7316644,0.0002592,53.2187,274.3924,20.8127,341.5669,7.6374e-06,4.49e-06,0.0,0 STARLINK-4149,1 53290U 22086BA  22231.58334491  .00000449  00000-0  76374-5 0  9993,2 53290  53.2187 274.3924 0002592  20.8127 341.5669 15.73166440  1301,6727.991,91.535,351.6,348.112,0.0
53290.0,STARLINK-4149,PAYLOAD,2022-08-19 22:00:00,15.73108772,0.0002278,53.2187,272.7411,18.1333,73.1344,0.00035763,0.00049675,0.0,0 STARLINK-4149,1 53290U 22086BA  22231.91667824  .00049675  00000-0  35763-3 0  9998,2 53290  53.2187 272.7411 0002278  18.1333  73.1344 15.73108772  4781,6728.155,91.538,351.55300000000005,348.48800000000006,0.0
53290.0,STARLINK-4149,PAYLOAD,2022-08-20 14:00:01,15.73153888,0.0002593999999999,53.2183,269.4447,17.4726,251.5178,0.00060535,0.0008504,0.0,0 STARLINK-4149,1 53290U 22086BA  22232.58334491  .00085040  00000-0  60535-3 0  9994,2 53290  53.2183 269.4447 0002594  17.4726 251.5178 15.73153888  1308,6728.026999999999,91.536,351.63699999999994,348.146,0.0
53290.0,STARLINK-4149,PAYLOAD,2022-08-20 22:00:00,15.73182945,0.0002376999999999,53.2185,267.7932,20.2972,337.6173,0.00051884,0.0007277999999999,0.0,0 STARLINK-4149,1 53290U 22086BA  22232.91667824  .00072780  00000-0  51884-3 0  9994,2 53290  53.2185 267.7932 0002377  20.2972 337.6173 15.73182945  1301,6727.944,91.534,351.408,348.21,0.0
53290.0,STARLINK-4149,PAYLOAD,2022-08-21 06:00:00,15.7327171,0.0002494,53.2187,266.1446,20.0882,66.7504,-0.00058141,-0.00081694,0.0,0 STARLINK-4149,1 53290U 22086BA  22233.25001157 -.00081694  00000-0 -58141-3 0  9992,2 53290  53.2187 266.1446 0002494  20.0882  66.7504 15.73271710  4999,6727.691,91.529,351.2340000000001,347.87800000000016,0.0
53290.0,STARLINK-4149,PAYLOAD,2022-08-21 14:00:01,15.73176384,0.0002653,53.2184,264.4964,15.7732,160.0592,0.00046664,0.00065321,0.0,0 STARLINK-4149,1 53290U 22086BA  22233.58334491  .00065321  00000-0  46664-3 0  9992,2 53290  53.2184 264.4964 0002653  15.7732 160.0592 15.73176384  1302,6727.9630000000025,91.535,351.612,348.043,0.0
53290.0,STARLINK-4149,PAYLOAD,2022-08-21 22:00:00,15.73195318,0.0002448,53.2184,262.845,17.8276,246.9363,0.00043986,0.00061557,0.0,0 STARLINK-4149,1 53290U 22086BA  22233.91667824  .00061557  00000-0  43986-3 0  9999,2 53290  53.2184 262.8450 0002448  17.8276 246.9363 15.73195318  1300,6727.909000000002,91.533,351.421,348.12699999999984,0.0
53290.0,STARLINK-4149,PAYLOAD,2022-08-22 12:00:00,15.73183304,0.0002778,53.218,259.9609,21.4419,308.9911,0.00030107,0.00041818,0.0,0 STARLINK-4149,1 53290U 22086BA  22234.50001157  .00041818  00000-0  30107-3 0  9995,2 53290  53.2180 259.9609 0002778  21.4419 308.9911 15.73183304  5185,6727.943,91.534,351.677,347.939,0.0
53290.0,STARLINK-4149,PAYLOAD,2022-08-22 22:00:00,15.73149286,0.0002466,53.2179,257.8968,19.2568,152.3465,0.00039063,0.00054443,0.0,0 STARLINK-4149,1 53290U 22086BA  22234.91667824  .00054443  00000-0  39063-3 0  9997,2 53290  53.2179 257.8968 0002466  19.2568 152.3465 15.73149286  5256,6728.04,91.536,351.564,348.246,0.0
53290.0,STARLINK-4149,PAYLOAD,2022-08-23 12:00:00,15.73170661,0.0002818,53.2181,255.0128,19.7275,217.4572,0.00055573,0.00078011,0.0,0 STARLINK-4149,1 53290U 22086BA  22235.50001157  .00078011  00000-0  55573-3 0  9995,2 53290  53.2181 255.0128 0002818  19.7275 217.4572 15.73170661  5341,6727.979,91.535,351.74,347.9480000000001,0.0
53290.0,STARLINK-4149,PAYLOAD,2022-08-23 14:00:01,15.73196663,0.0002816,53.2177,254.6001,18.9698,330.4376,0.00030481,0.00042372,0.0,0 STARLINK-4149,1 53290U 22086BA  22235.58334491  .00042372  00000-0  30481-3 0  9995,2 53290  53.2177 254.6001 0002816  18.9698 330.4376 15.73196663  1309,6727.905,91.533,351.664,347.875,0.0
53290.0,STARLINK-4149,PAYLOAD,2022-08-23 20:00:01,15.73224713,0.0002572,53.2179,253.3615,19.9978,306.1112,-0.0001649,-0.00023728,0.0,0 STARLINK-4149,1 53290U 22086BA  22235.83334491 -.00023728  00000-0 -16490-3 0  9993,2 53290  53.2179 253.3615 0002572  19.9978 306.1112 15.73224713  5398,6727.825,91.532,351.42,347.959,0.0
53290.0,STARLINK-4149,PAYLOAD,2022-08-23 22:00:01,15.73219908,0.0002535,53.2177,252.9487,19.9362,58.4789,-0.00018064,-0.00025921,0.0,0 STARLINK-4149,1 53290U 22086BA  22235.91668981 -.00025921  00000-0 -18064-3 0  9992,2 53290  53.2177 252.9487 0002535  19.9362  58.4789 15.73219908  1308,6727.8380000000025,91.532,351.409,347.99800000000016,0.0
53290.0,STARLINK-4149,PAYLOAD,2022-08-24 14:00:01,15.73197416,0.0002758,53.2169,249.6519,16.9884,239.2149,0.000192,0.0002641,0.0,0 STARLINK-4149,1 53290U 22086BA  22236.58334491  .00026410  00000-0  19200-3 0  9997,2 53290  53.2169 249.6519 0002758  16.9884 239.2149 15.73197416  1309,6727.903,91.533,351.62300000000016,347.912,0.0
53290.0,STARLINK-4149,PAYLOAD,2022-08-24 22:00:00,15.73186522,0.0002531,53.2171,248.0004,20.0329,325.1117,0.00053848,0.00075597,0.0,0 STARLINK-4149,1 53290U 22086BA  22236.91667824  .00075597  00000-0  53848-3 0  9999,2 53290  53.2171 248.0004 0002531  20.0329 325.1117 15.73186522  5561,6727.934,91.534,351.501,348.096,0.0
53290.0,STARLINK-4149,PAYLOAD,2022-08-25 14:00:01,15.73221188,0.0002786,53.2171,244.7032,16.0177,147.0457,-0.00018262,-0.00026201,0.0,0 STARLINK-4149,1 53290U 22086BA  22237.58334491 -.00026201  00000-0 -18262-3 0  9995,2 53290  53.2171 244.7032 0002786  16.0177 147.0457 15.73221188  1307,6727.835,91.532,351.574,347.825,0.0
53290.0,STARLINK-4149,PAYLOAD,2022-08-25 22:00:00,15.73183629,0.0002556,53.2171,243.0519,16.8744,235.1397,0.00049047,0.00068737,0.0,0 STARLINK-4149,1 53290U 22086BA  22237.91667824  .00068737  00000-0  49047-3 0  9994,2 53290  53.2171 243.0519 0002556  16.8744 235.1397 15.73183629  1301,6727.941999999999,91.534,351.527,348.087,0.0
53290.0,STARLINK-4149,PAYLOAD,2022-08-26 06:00:00,15.73261138,0.0002694,53.2169,241.4041,15.4218,325.5341,-0.00074882,-0.00104712,0.0,0 STARLINK-4149,1 53290U 22086BA  22238.25001157 -.00104712  00000-0 -74882-3 0  9994,2 53290  53.2169 241.4041 0002694  15.4218 325.5341 15.73261138  5774,6727.721,91.53,351.398,347.773,0.0
53290.0,STARLINK-4149,PAYLOAD,2022-08-26 14:00:01,15.73196219,0.0002761,53.2164,239.7546,12.9025,57.0676,8.92e-05,0.00011914,0.0,0 STARLINK-4149,1 53290U 22086BA  22238.58335648  .00011914  00000-0  89200-4 0  9995,2 53290  53.2164 239.7546 0002761  12.9025  57.0676 15.73196219  1302,6727.906,91.533,351.629,347.913,0.0
53290.0,STARLINK-4149,PAYLOAD,2022-08-26 20:00:01,15.73175038,0.0002504,53.2168,238.516,13.9457,32.6584,0.0004915,0.00068858,0.0,0 STARLINK-4149,1 53290U 22086BA  22238.83334491  .00068858  00000-0  49150-3 0  9996,2 53290  53.2168 238.5160 0002504  13.9457  32.6584 15.73175038  5879,6727.965999999999,91.535,351.516,348.147,0.0
53290.0,STARLINK-4149,PAYLOAD,2022-08-26 22:00:00,15.73185512,0.0002484999999999,53.2167,238.1034,14.6754,144.1568,0.00046854,0.00065616,0.0,0 STARLINK-4149,1 53290U 22086BA  22238.91667824  .00065616  00000-0  46854-3 0  9991,2 53290  53.2167 238.1034 0002485  14.6754 144.1568 15.73185512  1303,6727.936,91.534,351.473,348.13,0.0
53290.0,STARLINK-4149,PAYLOAD,2022-08-27 14:00:01,15.73202919,0.0002748999999999,53.2169,234.806,10.1539,326.5546,6.1628e-05,8.037e-05,0.0,0 STARLINK-4149,1 53290U 22086BA  22239.58334491  .00008037  00000-0  61628-4 0  9997,2 53290  53.2169 234.8060 0002749  10.1539 326.5546 15.73202919  1305,6727.887,91.533,351.601,347.902,0.0
53290.0,STARLINK-4149,PAYLOAD,2022-08-27 22:00:00,15.73203218,0.0002562,53.2171,233.1549,14.7899,50.8525,0.00029817,0.00041442,0.0,0 STARLINK-4149,1 53290U 22086BA  22239.91667824  .00041442  00000-0  29817-3 0  9993,2 53290  53.2171 233.1549 0002562  14.7899  50.8525 15.73203218  1301,6727.886,91.533,351.475,348.027,0.0
53290.0,STARLINK-4149,PAYLOAD,2022-08-28 14:00:01,15.73250919,0.0002757,53.2165,229.8574,16.9996,226.5436,-0.00060483,-0.00084858,0.0,0 STARLINK-4149,1 53290U 22086BA  22240.58334491 -.00084858  00000-0 -60483-3 0  9993,2 53290  53.2165 229.8574 0002757  16.9996 226.5436 15.73250919  1305,6727.75,91.53,351.47,347.76,0.0
